[
    {
        "model": "user.address",
        "pk": 1,
        "fields": {
            "user": 1,
            "address": "123 Main St",
            "number": 101,
            "neighborhood": "Downtown",
            "city": "New York",
            "state": "NY",
            "zipcode": 10001
        }
    },
    {
        "model": "user.address",
        "pk": 2,
        "fields": {
            "user": 2,
            "address": "456 Elm St",
            "number": 202,
            "neighborhood": "Uptown",
            "city": "Los Angeles",
            "state": "CA",
            "zipcode": 90001
        }
    },
    {
        "model": "user.address",
        "pk": 3,
        "fields": {
            "user": 3,
            "address": "789 Oak St",
            "number": 303,
            "neighborhood": "Midtown",
            "city": "Chicago",
            "state": "IL",
            "zipcode": 60601
        }
    },
    {
        "model": "user.address",
        "pk": 4,
        "fields": {
            "user": 5,
            "address": "101 Pine St",
            "number": 404,
            "neighborhood": "Suburb",
            "city": "Houston",
            "state": "TX",
            "zipcode": 77001
        }
    },
    {
        "model": "user.address",
        "pk": 5,
        "fields": {
            "user": 4,
            "address": "202 Maple St",
            "number": 505,
            "neighborhood": "Old Town",
            "city": "Phoenix",
            "state": "AZ",
            "zipcode": 85001
        }
    },
    {
        "model": "user.address",
        "pk": 6,
        "fields": {
            "user": 6,
            "address": "303 Cedar St",
            "number": 606,
            "neighborhood": "New Town",
            "city": "Philadelphia",
            "state": "PA",
            "zipcode": 19019
        }
    },
    {
        "model": "user.address",
        "pk": 7,
        "fields": {
            "user": 7,
            "address": "404 Birch St",
            "number": 707,
            "neighborhood": "East Side",
            "city": "San Antonio",
            "state": "TX",
            "zipcode": 78201
        }
    },
    {
        "model": "user.address",
        "pk": 8,
        "fields": {
            "user": 8,
            "address": "505 Walnut St",
            "number": 808,
            "neighborhood": "West Side",
            "city": "San Diego",
            "state": "CA",
            "zipcode": 92101
        }
    },
    {
        "model": "user.address",
        "pk": 9,
        "fields": {
            "user": 9,
            "address": "606 Spruce St",
            "number": 909,
            "neighborhood": "North Side",
            "city": "Dallas",
            "state": "TX",
            "zipcode": 75201
        }
    },
    {
        "model": "user.address",
        "pk": 10,
        "fields": {
            "user": 10,
            "address": "707 Cherry St",
            "number": 1010,
            "neighborhood": "South Side",
            "city": "San Jose",
            "state": "CA",
            "zipcode": 95101
        }
    },
    {
        "model": "user.address",
        "pk": 11,
        "fields": {
            "user": 9,
            "address": "106 Pine St",
            "number": 301,
            "neighborhood": "Suburb",
            "city": "Houston",
            "state": "TX",
            "zipcode": 77001
        }
    }
]